OBJECT_NAME,OBJECT_ID,EPOCH,MEAN_MOTION,ECCENTRICITY,INCLINATION,RA_OF_ASC_NODE,ARG_OF_PERICENTER,MEAN_ANOMALY,EPHEMERIS_TYPE,CLASSIFICATION_TYPE,NORAD_CAT_ID,ELEMENT_SET_NO,REV_AT_EPOCH,BSTAR,MEAN_MOTION_DOT,MEAN_MOTION_DDOT
BEIDOU-2 IGSO-5 (C10),2011-073A,2026-06-24T15:46:07.226112,1.00272136,.01142233,47.6633,271.4526,222.0346,107.5350,0,U,37948,999,5320,0,-.196E-5,0
LUCH 5A (SDCM/PRN 140),2011-074B,2026-06-25T15:13:44.188608,1.00272193,.0002664,8.7753,73.6852,29.9506,205.4938,0,U,37951,999,5313,0,-.48E-6,0
BEIDOU-2 G5 (C05),2012-008A,2026-06-25T18:00:39.076128,1.00275377,.0008738,3.5957,69.6535,275.8962,257.2104,0,U,38091,999,5245,0,.64E-6,0
BEIDOU-2 M3 (C11),2012-018A,2026-06-23T15:10:21.359424,1.86229600,.00201939,55.7518,304.6576,273.5233,86.2361,0,U,38250,999,9606,0,-.109E-5,0
BEIDOU-2 M4 (C12),2012-018B,2026-06-24T02:26:04.915392,1.86229591,.0011644,55.6511,303.8559,274.0414,85.8160,0,U,38251,999,9607,0,-.109E-5,0
SES-5 (EGNOS/PRN 136),2012-036A,2026-06-25T12:37:14.341152,1.00270102,.0002254,0.0440,319.4688,132.5340,15.9396,0,U,38652,999,4454,0,.44E-6,0
BEIDOU-2 M6 (C14),2012-050B,2026-06-24T21:14:29.424192,1.86231110,.00135597,56.5509,62.6397,358.0228,2.0098,0,U,38775,999,9345,0,-.94E-6,0
GSAT-10 (GAGAN/PRN 128),2012-051B,2026-06-25T16:24:56.461248,1.00272150,.0008138,0.0610,259.6299,190.7160,152.7319,0,U,38779,999,5018,0,-.155E-5,0
GPS BIIF-3  (PRN 24),2012-053A,2026-06-25T07:02:17.411712,2.00567663,.0180747,53.5873,143.2672,65.8756,295.9735,0,U,38833,999,9960,0,.38E-6,0
GSAT0103 (GALILEO-FM3),2012-055A,2026-06-24T12:21:06.854688,1.70473530,.00047688,55.8110,101.3445,306.0836,53.8462,0,U,38857,999,8513,0,-.36E-6,0
BEIDOU-2 G6 (C02),2012-059A,2026-06-25T16:24:56.461248,1.00271458,.0009752,4.4435,73.4366,328.3512,202.3033,0,U,38953,999,4999,0,-.169E-5,0
LUCH 5B (SDCM/PRN 125),2012-061A,2026-06-25T19:56:40.147872,1.00272668,.0002459,10.5026,49.7975,136.5618,10.5144,0,U,38977,999,4969,0,-.136E-5,0
COSMOS 2485 (747),2013-019A,2026-06-23T22:46:24.044160,2.13103180,.00230164,65.4235,73.3773,233.5300,126.2899,0,U,39155,999,10242,0,-.68E-6,0
GPS BIIF-4  (PRN 27),2013-023A,2026-06-25T15:48:58.300704,2.00563550,.0141475,54.4973,268.6283,51.0602,310.2306,0,U,39166,999,9605,0,-.46E-6,0
IRNSS-1A,2013-034A,2026-06-25T17:59:54.148128,1.00277689,.0018407,35.7396,63.7472,178.4200,356.6391,0,U,39199,999,4745,0,.48E-6,0
GPS BIIF-5  (PRN 30),2014-008A,2026-06-25T03:53:31.017984,2.00560355,.0084219,53.6558,148.9944,231.3843,127.8374,0,U,39533,999,8984,0,.52E-6,0
ASTRA 5B (EGNOS/PRN 123),2014-011B,2026-06-25T19:33:20.847168,1.00272025,.0002206,0.0542,322.9374,114.4652,153.3488,0,U,39617,999,4475,0,.148E-5,0
COSMOS 2492 (754),2014-012A,2026-06-23T21:47:10.853664,2.13103141,.00102141,65.2933,313.7069,323.0851,36.8355,0,U,39620,999,9538,0,-.82E-6,0
IRNSS-1B,2014-017A,2026-06-22T18:08:03.866784,1.00268591,.00234964,28.9065,240.3095,164.9008,193.0039,0,U,39635,999,4484,0,.117E-5,0
LUCH 5V (SDCM/PRN 141),2014-023A,2026-06-25T18:10:55.040736,1.00272155,.0002402,5.1544,69.6639,47.9726,163.7407,0,U,39727,999,4444,0,-.263E-5,0
GPS BIIF-6  (PRN 06),2014-026A,2026-06-25T10:30:23.311584,2.00560534,.0038118,56.4940,331.1963,326.3837,33.3680,0,U,39741,999,8870,0,-.104E-5,0
COSMOS 2500 (755),2014-032A,2026-06-25T00:22:56.912736,2.13106005,.000768,65.2275,313.4156,185.1061,174.8760,0,U,40001,999,9362,0,-.85E-6,0
GPS BIIF-7  (PRN 09),2014-045A,2026-06-25T00:44:36.093120,2.00559023,.0033642,55.3581,88.1524,118.2729,242.0683,0,U,40105,999,8623,0,-.68E-6,0
GSAT0201 (GALILEO 5),2014-050A,2026-06-24T10:10:10.322112,1.85520133,.16757066,48.8673,273.1394,179.6719,180.5031,0,U,40128,999,7845,0,-.85E-6,0
GSAT0202 (GALILEO 6),2014-050B,2026-06-24T03:21:58.581504,1.85520680,.16768012,48.8844,272.2366,180.3913,179.5080,0,U,40129,999,8061,0,-.85E-6,0
IRNSS-1C,2014-061A,2026-06-25T16:24:56.461248,1.00267985,.0022592,6.5386,88.7700,3.4967,150.6688,0,U,40269,999,4277,0,-.155E-5,0
GPS BIIF-8  (PRN 03),2014-068A,2026-06-24T21:36:24.159168,2.00576832,.00672085,56.9929,30.6575,70.8868,289.8931,0,U,40294,999,8536,0,-.9E-6,0
COSMOS 2501 (702K),2014-075A,2026-06-24T08:09:00.872352,2.13101398,.00226491,63.6173,190.1245,212.5723,147.3362,0,U,40315,999,9000,0,.105E-5,0
GPS BIIF-9  (PRN 26),2015-013A,2026-06-24T12:59:48.234336,2.00551009,.01097093,53.1675,203.8732,40.1788,320.6928,0,U,40534,999,8197,0,.81E-6,0
GSAT0203 (GALILEO 7),2015-017A,2026-06-24T06:02:36.166272,1.70476337,.00021156,56.7845,341.4029,270.3304,89.6420,0,U,40544,999,6932,0,-.98E-6,0
GSAT0204 (GALILEO 8),2015-017B,2026-06-23T22:06:17.261568,1.70475870,.00020932,56.7909,341.4306,241.0442,118.9316,0,U,40545,999,3236,0,-.99E-6,0
